#dP2020  5 22  0  0  0.00000000      96 __u+U ITR00 FIT  IAC
## 2106 432000.00000000   900.00000000 58991 0.0000000000000
+  117   C06C07C08C09C10C11C12C13C14C16C19C20C21C22C23C24C25
+        C26C27C28C29C30C32C33C34C35C36C37C38C39C40C43C44C45
+        C46E01E02E03E04E05E07E08E09E11E12E13E14E15E18E19E21
+        E24E25E26E27E30E31E33E36G01G02G03G04G05G06G07G08G09
+        G10G11G12G13G14G15G16G17G18G19G20G21G22G23G24G25G26
+        G27G28G29G30G31G32J01J02J03R01R02R03R04R05R07R08R09
+        R11R12R13R14R15R16R17R18R19R20R21R22R23R24R26  0  0
++         9  8  8  8  8  9  6  8  8  9  6  7  7  8  8  7  6
++         7  9  7  7  7  6  8  8  5  8  8  6 12 14 12 10  8
++        13  6  6  5  6  6  6  7  7  7  8  7  6  6  7  7  6
++         7  7  6  7  6  6  5  6  9  6  6  6  7  6  7  5  6
++         6  6  5  6  5  6  6  6  6  7  6  6  5  7  6  5  6
++         5  6  6  6  7  6  8  9  8  7  6  7  7  6  7  6  6
++         8  8  8  9  8  7  5  7  9  9  9  8  7  7  7  0  0
%c M  cc GPS ccc cccc cccc cccc cccc ccccc ccccc ccccc ccccc
%c cc cc ccc ccc cccc cccc cccc cccc ccccc ccccc ccccc ccccc
%f  0.0000000  0.000000000  0.00000000000  0.000000000000000
%f  0.0000000  0.000000000  0.00000000000  0.000000000000000
%i    0    0    0    0      0      0      0      0         0
%i    0    0    0    0      0      0      0      0         0
/* INFORMATION & ANALYSIS CENTER (IAC)      ULTRA-RAPID DATA
/* S/V CLOCKS ARE ALIGNED TO GNSS TIME                      
/* G:C1WC2W R:C1PC2P E:C1XC5X C:C2IC6I J:C1CC2S             
/* PCV:IGS14_2101 OL/AL:FES2004  NONE     YN ORB:CoN CLK:CoN
*  2020 05 22  8  0  0.00000000
PC06 -20251.847928  20884.808713 -30266.968696    736.663544
PC07 -20149.798681  36720.256122   -452.917289    -52.545869
PC08  -5340.718543  28537.521878  30795.887100   -266.473007
PC09  -1002.223298  24414.696180 -34088.814967    557.351223
PC10  -8555.734881  38887.296385  13381.267504   -283.174644
PC11 -24420.929978   1257.184558  13456.987424   -380.067835
PC12 -25269.027944 -10988.298116  -4312.718795    379.382385
PC13   5672.825941  36697.873938  20299.085238    449.090576
PC14 -23088.695884  11725.328765  10356.632071    436.319446
PC16 -16231.107391  21896.790285 -32139.853019   -637.428371
PC19  20973.733553 -18365.980780  -1445.853569    420.070924
PC20  21773.182080  -4330.159390 -16906.016650   -870.088837
PC21  -9544.010810 -12887.695725  22863.716970   -431.030289
PC22   8042.097210 -22022.248499  15173.478573   -801.218720
PC23    554.290075  26917.825227  -7324.299962   -870.102047
PC24 -16874.704685  -5917.277837 -21425.027561   -814.394959
PC25 -10985.110990  15658.510540 -20328.100636   -625.413380
PC26 -13099.066305 -22295.845069 -10457.975015    689.640664
PC27  19378.443074  15560.648467  12651.987410    334.253950
PC28    387.736850  16495.745268  22505.747318   -227.628987
PC29  18441.652358  -8505.143411 -19145.759401    231.868744
PC30  27158.962722   4727.715256  -4257.715558    320.570500
PC32   9685.868992  12764.522439 -22824.771446   -888.998668
PC33 -20919.540742  18385.745783   1567.519622   -830.865753
PC34 -27152.607005  -4507.299395   4680.154170   -741.077563
PC35   -765.461526 -16505.702703 -22496.416209   -833.211797
PC36  11476.750920 -15164.747290  20449.441892   -833.199393
PC37  12287.343425  23030.748446   9897.124139   -843.977902
PC38  -1988.178978  33171.879070  26026.997594 999999.999999
PC39      0.000000      0.000000      0.000000 999999.999999
PC40 -16793.468118  37024.094938  10798.484219 999999.999999
PC43 -18783.816880   8283.351456  18908.163983 999999.999999
PC44 -19737.746846 -15076.040550 -12765.397951 999999.999999
PC45   -659.521311 -26897.423592   7388.429234 999999.999999
PC46  16775.840069   5382.648042  21655.784419    823.138681
PE01  -3564.583426 -26067.766454 -13566.465762   -861.645181
PE02   3618.157332  26026.794850  13631.071135    135.048913
PE03   7033.727655  15706.588435 -24076.420125   -301.375786
PE04 -24501.607338  -4152.030111  16091.554581   -530.347109
PE05 -14797.727815  18201.324324 -18041.498029   -378.158321
PE07  27802.969056 -10061.248550   1543.087041   -385.175805
PE08  24637.226732   3724.026010 -15980.249502   6174.785095
PE09 -27706.561221  10264.260149  -1608.909746   6053.346597
PE11 -19702.157678   1866.872424  22012.023144   2982.084538
PE12 -24309.674865 -15308.290915   7184.677937   5793.292937
PE13  19773.378736  -1695.259243 -21954.991102    401.025357
PE14  11024.474074  13671.608591  16376.219929  -1022.512434
PE15  24374.084521  15070.820523  -7389.067541    866.208000
PE18  -6719.464652 -20149.454226 -24184.276897  -1121.974192
PE19  -4659.849392 -16364.900217  24232.066896  -2472.229815
PE21   9173.243948 -27751.580933   4687.987771   -600.286373
PE24 -16961.588258  12881.242598 -20577.012453   5442.908642
PE25  -9249.191646  27700.963603  -4815.663485   -510.970052
PE26   3385.214203 -17809.034846 -23398.457243   3161.324151
PE27  16811.593584 -13204.227987  20474.104248    214.830410
PE30  14402.801702   9484.678160  24047.301613   3887.731668
PE31 -14533.760254  -9027.393900 -24151.197921   -472.622926
PE33 -14670.670983 -22992.963723 -11512.604991   -467.007439
PE36  -3579.705429  17457.088987  23635.563072    556.986791
PG01 -18789.365661  -9897.784571  15939.927707   -383.617358
PG02  13263.017456  22788.734380   4059.445867   -459.875099
PG03 -16843.636448   1801.179671  20369.817680   -183.684914
PG04 -26556.631666   -414.888693    985.324823    -92.563579
PG05   6117.589157  17920.645575 -18680.168950    -13.145691
PG06   4301.611070  22829.495512  12883.127822   -275.876184
PG07 -12520.049493   8676.455078 -21440.771039   -286.750515
PG08 -22731.399344  -6983.957224 -12079.949254    -34.853813
PG09 -23335.550958   8269.130874  -9692.834060   -221.988318
PG10  11200.237694 -23898.318661   1516.129378   -348.420806
PG11 -23398.444774 -11884.138619   2301.781015   -270.405959
PG12  16368.468652    -95.572551  20644.357700    115.073073
PG13  15999.279492  13032.082234 -16891.395220     11.970635
PG14   -879.584603 -15415.987352  21966.510161    -11.297451
PG15  23675.853503   5244.847022 -11574.468069   -229.537906
PG16  -5480.317392 -16548.016348 -20119.568285   -161.131056
PG17  -9689.807127  13786.522687  20940.256426    268.641000
PG18  12513.781489  -8567.223299 -21813.838239    197.348853
PG19  -1099.908711  14569.667297  21879.847599   -155.512039
PG20  15115.317625 -19085.516484 -10428.519297    527.651430
PG21   8698.673225 -13039.888363 -20744.675440      1.788031
PG22 -13853.717994  -8148.365474  21369.427433 999999.999999
PG23 -22151.021450   9597.322466 -11163.591520   -112.196224
PG24  20159.946113  10356.904845  13938.077320    -13.339253
PG25  18018.678079 -10694.244149  15919.896130      6.099497
PG26   2317.234014 -23792.892456 -11368.579555    211.038177
PG27 -13644.247928 -12453.396765 -19351.145864   -300.266455
PG28 -12012.074040  23533.195388   3963.969239    715.330208
PG29  25337.815287  -3967.032548  -6997.510458   -110.073005
PG30  -4421.113864  18716.986685 -18187.808719   -225.402229
PG31  -4695.588494 -23308.101131  11308.287591    -44.036608
PG32   8070.229745 -14887.086121  20510.412763    285.364851
PJ01 -35193.898277  23054.268515   2058.419350   -300.089306
PJ02 -20227.233120  30248.797468 -16680.763964     -0.169473
PJ03 -29216.008167  23228.118744  24739.077387     -3.234911
PR01  21437.028824  -7316.093206 -11739.324446     61.896419
PR02  17455.608358 -16105.167887   9279.082958    427.871388
PR03   2534.147285 -13687.307911  21411.279905     15.436537
PR04 -13523.937726  -3352.930258  21398.576347     50.000638
PR05 -22101.936081   8754.689665   9290.091223     50.894633
PR07  -2090.857119  13460.586949 -21532.390868    -36.783991
PR08  13576.702750   3420.603083 -21259.526023    -52.370788
PR09  -4120.621365  22813.556339 -10548.675679    133.895085
PR11   9733.946570  14294.184483  18742.166851    -24.428707
PR12  10687.530860  -3716.661186  22884.268220    132.774763
PR13   5549.010853 -20599.013193  13970.488305    -39.004244
PR14  -2592.668947 -25180.781838  -3206.473220     51.480145
PR15  -9279.647551 -15202.654066 -18242.651587    106.498434
PR16 -10702.062425   4704.893229 -22706.176020     -3.690673
PR17  -9014.766423 -14537.259948 -18904.217027    326.803988
PR18 -21081.499287 -13649.640292  -4628.285121     36.190996
PR19 -21759.467523  -6294.855090  11727.656378    -94.452280
PR20  -8946.433070   6671.935039  22945.476347   -412.316599
PR21   9928.059410  14686.073201  18347.740705   -126.154293
PR22  21838.090027  12886.795882   2074.773550     -2.406305
PR23  18844.508241   1453.227721 -17138.337901    307.099478
PR24   8414.264079  -7593.876618 -22839.145864     -0.515006
PR26 -12945.498548   4022.525079  21610.307147   -394.899393
EOF
